start=new Date('2022-08-25T00:00:00.000Z').valueOf();
sats=[{"OBJECT_TYPE":"PAYLOAD","EPHEMERIS_TYPE":"0","BSTAR":"0.00022723000000","REV_AT_EPOCH":"130","OBJECT_NAME":"STARLINK-4052","REF_FRAME":"TEME","MEAN_MOTION_DDOT":"0.0000000000000","APOAPSIS":"351.486","COUNTRY_CODE":"US","SEMIMAJOR_AXIS":"6727.864","TLE_LINE1":"1 53171U 22083AR  22236.91667824  .00031407  00000-0  22723-3 0  9994","NORAD_CAT_ID":"53171","TIME_SYSTEM":"UTC","INCLINATION":"53.2143","ELEMENT_SET_NO":"999","RCS_SIZE":"LARGE","EPOCH":"2022-08-24T22:00:00.999936","PERIAPSIS":"347.973","CLASSIFICATION_TYPE":"U","FILE":"3546663","MEAN_MOTION":"15.73210879","MEAN_MOTION_DOT":"0.00031407","CENTER_NAME":"EARTH","DECAY_DATE":null,"MEAN_ELEMENT_THEORY":"SGP4","LAUNCH_DATE":"2022-07-17","PERIOD":"91.533","TLE_LINE2":"2 53171  53.2143 217.1325 0002611  16.0853 208.2805 15.73210879  1303","OBJECT_ID":"2022-083AR","MEAN_ANOMALY":"208.2805","RA_OF_ASC_NODE":"217.1325","SITE":"AFETR","ECCENTRICITY":"0.00026110","GP_ID":"210936611","ARG_OF_PERICENTER":"16.0853"},{"COUNTRY_CODE":"US","MEAN_MOTION_DDOT":"0.0000000000000","APOAPSIS":"351.814","REF_FRAME":"TEME","REV_AT_EPOCH":"668","OBJECT_NAME":"STARLINK-4299","BSTAR":"0.00022130000000","OBJECT_TYPE":"PAYLOAD","EPHEMERIS_TYPE":"0","EPOCH":"2022-08-24T22:00:00.999936","PERIAPSIS":"347.602","RCS_SIZE":"LARGE","ELEMENT_SET_NO":"999","INCLINATION":"53.2144","TIME_SYSTEM":"UTC","NORAD_CAT_ID":"53172","SEMIMAJOR_AXIS":"6727.843","TLE_LINE1":"1 53172U 22083AS  22236.91667824  .00030579  00000-0  22130-3 0  9996","LAUNCH_DATE":"2022-07-17","MEAN_ELEMENT_THEORY":"SGP4","CENTER_NAME":"EARTH","DECAY_DATE":null,"MEAN_MOTION":"15.73218277","MEAN_MOTION_DOT":"0.00030579","CLASSIFICATION_TYPE":"U","FILE":"3546500","ARG_OF_PERICENTER":"8.2914","SITE":"AFETR","GP_ID":"210908212","ECCENTRICITY":"0.00031300","RA_OF_ASC_NODE":"217.1457","MEAN_ANOMALY":"209.5083","OBJECT_ID":"2022-083AS","PERIOD":"91.532","TLE_LINE2":"2 53172  53.2144 217.1457 0003130   8.2914 209.5083 15.73218277  6687"},{"OBJECT_TYPE":"PAYLOAD","EPHEMERIS_TYPE":"0","BSTAR":"0.00039807000000","OBJECT_NAME":"STARLINK-4300","REV_AT_EPOCH":"130","REF_FRAME":"TEME","APOAPSIS":"351.858","MEAN_MOTION_DDOT":"0.0000000000000","COUNTRY_CODE":"US","SEMIMAJOR_AXIS":"6727.889","TLE_LINE1":"1 53173U 22083AT  22236.91667824  .00055632  00000-0  39807-3 0  9993","NORAD_CAT_ID":"53173","TIME_SYSTEM":"UTC","INCLINATION":"53.2143","ELEMENT_SET_NO":"999","RCS_SIZE":"LARGE","EPOCH":"2022-08-24T22:00:00.999936","PERIAPSIS":"347.649","CLASSIFICATION_TYPE":"U","FILE":"3546663","MEAN_MOTION":"15.73202207","MEAN_MOTION_DOT":"0.00055632","CENTER_NAME":"EARTH","DECAY_DATE":null,"MEAN_ELEMENT_THEORY":"SGP4","LAUNCH_DATE":"2022-07-17","PERIOD":"91.533","TLE_LINE2":"2 53173  53.2143 217.1387 0003128   8.4781 212.8472 15.73202207  1309","OBJECT_ID":"2022-083AT","MEAN_ANOMALY":"212.8472","RA_OF_ASC_NODE":"217.1387","SITE":"AFETR","ECCENTRICITY":"0.00031280","GP_ID":"210936879","ARG_OF_PERICENTER":"8.4781"},{"MEAN_ELEMENT_THEORY":"SGP4","LAUNCH_DATE":"2022-07-17","MEAN_MOTION_DOT":"-0.01125528","MEAN_MOTION":"15.43244266","DECAY_DATE":null,"CENTER_NAME":"EARTH","FILE":"3546663","CLASSIFICATION_TYPE":"U","GP_ID":"210937173","ECCENTRICITY":"0.00012970","SITE":"AFETR","ARG_OF_PERICENTER":"51.5984","RA_OF_ASC_NODE":"219.1637","MEAN_ANOMALY":"312.0826","TLE_LINE2":"2 53174  53.2175 219.1637 0001297  51.5984 312.0826 15.43244266  1308","PERIOD":"93.310","OBJECT_ID":"2022-083AU","APOAPSIS":"437.428","MEAN_MOTION_DDOT":"0.0000000000000","COUNTRY_CODE":"US","REF_FRAME":"TEME","BSTAR":"-0.02724900000000","REV_AT_EPOCH":"130","OBJECT_NAME":"STARLINK-4205","EPHEMERIS_TYPE":"0","OBJECT_TYPE":"PAYLOAD","RCS_SIZE":"LARGE","PERIAPSIS":"435.660","EPOCH":"2022-08-24T22:00:00.999936","INCLINATION":"53.2175","ELEMENT_SET_NO":"999","TIME_SYSTEM":"UTC","TLE_LINE1":"1 53174U 22083AU  22236.91667824 -.01125528  00000-0 -27249-1 0  9994","SEMIMAJOR_AXIS":"6814.679","NORAD_CAT_ID":"53174"},{"FILE":"3546663","CLASSIFICATION_TYPE":"U","MEAN_MOTION_DOT":"-0.01125810","MEAN_MOTION":"15.43488394","DECAY_DATE":null,"CENTER_NAME":"EARTH","LAUNCH_DATE":"2022-07-17","MEAN_ELEMENT_THEORY":"SGP4","TLE_LINE2":"2 53175  53.2175 219.1667 0001487  40.4227 330.6636 15.43488394  1307","PERIOD":"93.295","OBJECT_ID":"2022-083AV","RA_OF_ASC_NODE":"219.1667","MEAN_ANOMALY":"330.6636","GP_ID":"210937025","ECCENTRICITY":"0.00014870","SITE":"AFETR","ARG_OF_PERICENTER":"40.4227","EPHEMERIS_TYPE":"0","OBJECT_TYPE":"PAYLOAD","BSTAR":"-0.02703000000000","OBJECT_NAME":"STARLINK-4292","REV_AT_EPOCH":"130","REF_FRAME":"TEME","APOAPSIS":"436.838","MEAN_MOTION_DDOT":"0.0000000000000","COUNTRY_CODE":"US","TLE_LINE1":"1 53175U 22083AV  22236.91667824 -.01125810  00000-0 -27030-1 0  9997","SEMIMAJOR_AXIS":"6813.960","NORAD_CAT_ID":"53175","TIME_SYSTEM":"UTC","INCLINATION":"53.2175","ELEMENT_SET_NO":"999","RCS_SIZE":"LARGE","PERIAPSIS":"434.812","EPOCH":"2022-08-24T22:00:00.999936"},{"INCLINATION":"53.2141","ELEMENT_SET_NO":"999","RCS_SIZE":"LARGE","PERIAPSIS":"347.622","EPOCH":"2022-08-24T22:00:00.999936","TLE_LINE1":"1 53176U 22083AW  22236.91667824  .00017688  00000-0  13021-3 0  9995","SEMIMAJOR_AXIS":"6727.917","NORAD_CAT_ID":"53176","TIME_SYSTEM":"UTC","REF_FRAME":"TEME","APOAPSIS":"351.942","MEAN_MOTION_DDOT":"0.0000000000000","COUNTRY_CODE":"US","EPHEMERIS_TYPE":"0","OBJECT_TYPE":"PAYLOAD","BSTAR":"0.00013021000000","REV_AT_EPOCH":"130","OBJECT_NAME":"STARLINK-4294","MEAN_ANOMALY":"211.8197","RA_OF_ASC_NODE":"217.1391","ECCENTRICITY":"0.00032110","GP_ID":"210936320","SITE":"AFETR","ARG_OF_PERICENTER":"8.3486","TLE_LINE2":"2 53176  53.2141 217.1391 0003211   8.3486 211.8197 15.73192311  1306","PERIOD":"91.534","OBJECT_ID":"2022-083AW","MEAN_MOTION_DOT":"0.00017688","MEAN_MOTION":"15.73192311","DECAY_DATE":null,"CENTER_NAME":"EARTH","LAUNCH_DATE":"2022-07-17","MEAN_ELEMENT_THEORY":"SGP4","FILE":"3546663","CLASSIFICATION_TYPE":"U"},{"REF_FRAME":"TEME","APOAPSIS":"352.033","MEAN_MOTION_DDOT":"0.0000000000000","COUNTRY_CODE":"US","OBJECT_TYPE":"PAYLOAD","EPHEMERIS_TYPE":"0","BSTAR":"0.00038476000000","REV_AT_EPOCH":"130","OBJECT_NAME":"STARLINK-4298","INCLINATION":"53.2151","ELEMENT_SET_NO":"999","RCS_SIZE":"LARGE","EPOCH":"2022-08-24T22:00:00.999936","PERIAPSIS":"347.511","SEMIMAJOR_AXIS":"6727.907","TLE_LINE1":"1 53177U 22083AX  22236.91667824  .00053726  00000-0  38476-3 0  9990","NORAD_CAT_ID":"53177","TIME_SYSTEM":"UTC","MEAN_MOTION":"15.73195858","MEAN_MOTION_DOT":"0.00053726","CENTER_NAME":"EARTH","DECAY_DATE":null,"MEAN_ELEMENT_THEORY":"SGP4","LAUNCH_DATE":"2022-07-17","CLASSIFICATION_TYPE":"U","FILE":"3546663","RA_OF_ASC_NODE":"217.1405","MEAN_ANOMALY":"214.5717","SITE":"AFETR","ECCENTRICITY":"0.00033600","GP_ID":"210936466","ARG_OF_PERICENTER":"7.9500","PERIOD":"91.533","TLE_LINE2":"2 53177  53.2151 217.1405 0003360   7.9500 214.5717 15.73195858  1308","OBJECT_ID":"2022-083AX"},{"OBJECT_TYPE":"PAYLOAD","EPHEMERIS_TYPE":"0","REV_AT_EPOCH":"130","OBJECT_NAME":"STARLINK-4280","BSTAR":"-0.00029383000000","REF_FRAME":"TEME","COUNTRY_CODE":"US","MEAN_MOTION_DDOT":"0.0000000000000","APOAPSIS":"351.014","NORAD_CAT_ID":"53178","SEMIMAJOR_AXIS":"6727.717","TLE_LINE1":"1 53178U 22083AY  22236.91667824 -.00041769  00000-0 -29383-3 0  9994","TIME_SYSTEM":"UTC","ELEMENT_SET_NO":"999","INCLINATION":"53.2150","EPOCH":"2022-08-24T22:00:00.999936","PERIAPSIS":"348.149","RCS_SIZE":"MEDIUM","CLASSIFICATION_TYPE":"U","FILE":"3546663","CENTER_NAME":"EARTH","DECAY_DATE":null,"MEAN_MOTION":"15.73262583","MEAN_MOTION_DOT":"-0.00041769","MEAN_ELEMENT_THEORY":"SGP4","LAUNCH_DATE":"2022-07-17","OBJECT_ID":"2022-083AY","PERIOD":"91.530","TLE_LINE2":"2 53178  53.2150 216.6775 0002129  22.4749  63.7559 15.73262583  1309","MEAN_ANOMALY":"63.7559","RA_OF_ASC_NODE":"216.6775","ARG_OF_PERICENTER":"22.4749","SITE":"AFETR","GP_ID":"210937341","ECCENTRICITY":"0.00021290"},{"TLE_LINE2":"2 53179  53.2148 217.1303 0002803  19.0966 207.6422 15.73199293  1307","PERIOD":"91.533","OBJECT_ID":"2022-083AZ","GP_ID":"210936612","ECCENTRICITY":"0.00028030","SITE":"AFETR","ARG_OF_PERICENTER":"19.0966","MEAN_ANOMALY":"207.6422","RA_OF_ASC_NODE":"217.1303","FILE":"3546663","CLASSIFICATION_TYPE":"U","LAUNCH_DATE":"2022-07-17","MEAN_ELEMENT_THEORY":"SGP4","MEAN_MOTION_DOT":"0.00036983","MEAN_MOTION":"15.73199293","DECAY_DATE":null,"CENTER_NAME":"EARTH","TIME_SYSTEM":"UTC","TLE_LINE1":"1 53179U 22083AZ  22236.91667824  .00036983  00000-0  26674-3 0  9995","SEMIMAJOR_AXIS":"6727.897","NORAD_CAT_ID":"53179","RCS_SIZE":"LARGE","PERIAPSIS":"347.876","EPOCH":"2022-08-24T22:00:00.999936","INCLINATION":"53.2148","ELEMENT_SET_NO":"999","BSTAR":"0.00026674000000","OBJECT_NAME":"STARLINK-4276","REV_AT_EPOCH":"130","EPHEMERIS_TYPE":"0","OBJECT_TYPE":"PAYLOAD","APOAPSIS":"351.648","MEAN_MOTION_DDOT":"0.0000000000000","COUNTRY_CODE":"US","REF_FRAME":"TEME"},{"CENTER_NAME":"EARTH","DECAY_DATE":null,"MEAN_MOTION":"15.73192428","MEAN_MOTION_DOT":"0.00017934","MEAN_ELEMENT_THEORY":"SGP4","LAUNCH_DATE":"2022-07-17","CLASSIFICATION_TYPE":"U","FILE":"3546663","RA_OF_ASC_NODE":"217.1386","MEAN_ANOMALY":"215.9244","ARG_OF_PERICENTER":"6.0589","SITE":"AFETR","GP_ID":"210936734","ECCENTRICITY":"0.00035980","OBJECT_ID":"2022-083BA","PERIOD":"91.534","TLE_LINE2":"2 53180  53.2146 217.1386 0003598   6.0589 215.9244 15.73192428  1304","REF_FRAME":"TEME","COUNTRY_CODE":"US","APOAPSIS":"352.202","MEAN_MOTION_DDOT":"0.0000000000000","OBJECT_TYPE":"PAYLOAD","EPHEMERIS_TYPE":"0","REV_AT_EPOCH":"130","OBJECT_NAME":"STARLINK-4258","BSTAR":"0.00013195000000","ELEMENT_SET_NO":"999","INCLINATION":"53.2146","EPOCH":"2022-08-24T22:00:00.999936","PERIAPSIS":"347.361","RCS_SIZE":"LARGE","NORAD_CAT_ID":"53180","SEMIMAJOR_AXIS":"6727.917","TLE_LINE1":"1 53180U 22083BA  22236.91667824  .00017934  00000-0  13195-3 0  9996","TIME_SYSTEM":"UTC"}];
